ORBCOMM-X [-]           
1 21576U 91050C   24098.46485947  .00000385  00000+0  12938-3 0  9997
2 21576  98.3948 166.8173 0004761  71.9630 288.2078 14.42429403719500
ORBCOMM FM01 [-]        
1 23545U 95017A   24098.91754769  .00005360  00000+0  73029-3 0  9999
2 23545  69.9667  70.3629 0008995 265.2912  94.7210 14.79220881547909
ORBCOMM FM02 [-]        
1 23546U 95017B   24098.39614201  .00004953  00000+0  68227-3 0  9999
2 23546  69.9673  91.0053 0010802 261.7661  98.2263 14.78791003547477
ORBCOMM FM08 [-]        
1 25112U 97084A   24098.84391845  .00001494  00000+0  49151-3 0  9994
2 25112  45.0149 292.0565 0007743 207.4660 152.5781 14.42285260378440
ORBCOMM FM10 [-]        
1 25113U 97084B   24098.84896380  .00001635  00000+0  53484-3 0  9990
2 25113  45.0162 293.8635 0005565 179.3726 180.7132 14.42206369553590
ORBCOMM FM11 [+]        
1 25114U 97084C   24098.86496384  .00001583  00000+0  52031-3 0  9992
2 25114  45.0146 293.8295 0006312 179.9163 180.1689 14.42088559378569
ORBCOMM FM12 [-]        
1 25115U 97084D   24098.82393005  .00001508  00000+0  49796-3 0  9996
2 25115  45.0155 293.7100 0005341 180.0304 180.0546 14.42055176378352
ORBCOMM FM09 [-]        
1 25116U 97084E   24098.83448635  .00001556  00000+0  51280-3 0  9992
2 25116  45.0159 294.3368 0006439 166.8250 193.2769 14.42021795378567
